satname,norad_id,inclination_deg,eccentricity,mean_motion_rev_per_day,perigee_km,apogee_km,l1,l2
STARLINK-1297,45395,53.0634,0.0001367,15.36964618,454.15715407115476,456.0253586764484,1 45395U 20019AM  26021.58335647  .01028670  00000+0  25787-1 0  9993,2 45395  53.0634 356.4192 0001367  78.8348 236.0131 15.36964618  5835
STARLINK-1307,45397,53.0698,0.0001293,15.40009444,445.1990470348319,446.9637899178506,1 45397U 20019AP  26021.58335647  .01034803  00000+0  23490-1 0  9999,2 45397  53.0698 355.9486 0001293  86.9497 149.8743 15.40009444  5797
STARLINK-1255,45399,53.0482,0.000622,15.42936764,433.207943990451,441.68653078175885,1 45399U 20019AR  26020.89112005  .00034632  00000+0  78067-3 0  9996,2 45399  53.0482 331.2015 0006220  74.9402 285.2291 15.42936764323032
STARLINK-1260,45404,53.1114,0.0001731,15.19469626,506.2505378005899,508.63432539981113,1 45404U 20019AW  26021.58335647  .00924191  00000+0  39796-1 0  9991,2 45404  53.1114 347.7815 0001731  87.5903 292.2728 15.19469626  5784
STARLINK-1263,45405,53.1098,0.0001726,15.19214849,507.0236480980129,509.40081585289045,1 45405U 20019AX  26021.58335647  .00889590  00000+0  38704-1 0  9993,2 45405  53.1098 347.7831 0001726  88.0179  12.0102 15.19214849  5834
STARLINK-1265,45406,53.1062,0.0001711,15.18414257,509.4539270310506,511.811263986634,1 45406U 20019AY  26021.58335647  .00928592  00000+0  41202-1 0  9997,2 45406  53.1062 347.8304 0001711  88.7426 305.0536 15.18414257  5838
STARLINK-1278,45408,53.0496,0.0005728,15.45971543,424.626024491683,432.4237363418888,1 45408U 20019BA  26021.58335647  .00008331  00000+0  17670-3 0  9993,2 45408  53.0496 356.7777 0005728  14.2888 182.0823 15.45971543  5839
STARLINK-1296,45412,53.1082,0.0002225,15.19065902,507.13005727680866,510.19468299652,1 45412U 20019BE  26021.58335647  .00044695  00000+0  21078-2 0  9997,2 45412  53.1082 347.6157 0002225  72.2222  60.3060 15.19065902  5736
STARLINK-1298,45413,53.0427,0.0008876,15.74335351,340.55437433571205,352.4919910920653,1 45413U 20019BF  26021.58335647  .00191109  00000+0  12691-2 0  9992,2 45413  53.0427 291.8635 0008876 125.2514  19.5284 15.74335351  6005
STARLINK-1309,45414,53.0709,0.0001387,15.17245704,513.2132426052804,515.1251683466799,1 45414U 20019BG  26021.58335647  .01653791  00000+0  75294-1 0  9991,2 45414  53.0709 347.8274 0001387  79.7401 211.1915 15.17245704  5838
STARLINK-1316,45415,53.1059,0.0001767,15.18413012,509.41911481770694,511.8536073235091,1 45415U 20019BH  26021.58335647  .00943606  00000+0  41815-1 0  9990,2 45415  53.1059 347.8300 0001767  89.8983  63.8788 15.18413012  5792
STARLINK-1318,45416,53.0413,0.0004933,15.80936126,324.4840876789194,331.10015735119396,1 45416U 20019BJ  26021.58335647  .00364022  00000+0  17653-2 0  9994,2 45416  53.0413 279.2207 0004933 146.3149 337.5811 15.80936126  5929
STARLINK-1286,45417,53.0515,0.0002576,15.47173461,423.24677661214173,426.7517524156192,1 45417U 20019BK  26021.58335647  .00018000  00000+0  35632-3 0  9995,2 45417  53.0515 356.4385 0002576  26.1643  37.7012 15.47173461  5945
STARLINK-1308,45419,53.0577,0.000151,15.31086659,471.53448655418197,473.6033997490131,1 45419U 20019BM  26021.36909948  .00006497  00000+0  22513-3 0  9995,2 45419  53.0577  17.1505 0001510  98.3773 261.7398 15.31086659322361
STARLINK-1329,45531,53.0563,0.000785,15.46288408,422.2524695255397,432.93746871706026,1 45531U 20025A   26020.96324182  .00042986  00000+0  86158-3 0  9991,2 45531  53.0563 310.7614 0007850  80.4820 279.7073 15.46288408318043
STARLINK-1338,45532,53.0546,0.000524,15.45101556,427.51165673745527,434.647715824678,1 45532U 20025B   26021.50269070  .00028021  00000+0  58945-3 0  9994,2 45532  53.0546 311.1358 0005240 104.4625 255.6962 15.45101556318087
STARLINK-1350,45535,53.0711,0.0002169,15.34766321,460.1311314249415,463.0982157009339,1 45535U 20025E   26021.33950701  .00018792  00000+0  55936-3 0  9997,2 45535  53.0711 255.2958 0002169 113.8560 246.2669 15.34766321318880
STARLINK-1362,45538,53.0546,8.86e-05,15.06335062,546.7969871889045,548.0241942219773,1 45538U 20025H   26021.22907182  .00023325  00000+0  15824-2 0  9992,2 45538  53.0546 319.3968 0000886 138.1654 221.9403 15.06335062317945
STARLINK-1368,45540,53.0551,0.0001463,15.06360434,546.319628448633,548.3460209193354,1 45540U 20025K   26021.23374807 -.00011358  00000+0 -74561-3 0  9997,2 45540  53.0551 319.6554 0001463  61.4546 298.6590 15.06360434317936
STARLINK-1371,45542,53.0548,0.0003606,15.40213346,443.01852391451666,447.9397158601796,1 45542U 20025M   26021.28786525  .00048940  00000+0  12017-2 0  9990,2 45542  53.0548 314.6725 0003606  94.0875 266.0541 15.40213346318019
STARLINK-1372,45543,53.0547,0.0001328,15.06358766,546.4182340206171,548.257640163909,1 45543U 20025N   26021.24111843 -.00011340  00000+0 -74444-3 0  9991,2 45543  53.0547 319.6204 0001328  87.9309 272.1832 15.06358766317038
STARLINK-1373,45544,53.0546,0.0003531,15.41418185,439.51473805281876,444.33106435505033,1 45544U 20025P   26021.51035791  .00034947  00000+0  82889-3 0  9997,2 45544  53.0546 314.0423 0003531 102.3154 257.8246 15.41418185318040
STARLINK-1294,45551,53.0365,0.0004049,15.78830647,331.0350318181481,336.4703200777303,1 45551U 20025W   26021.58335647  .00229223  00000+0  12443-2 0  9996,2 45551  53.0365 214.8969 0004049 241.0593 139.3656 15.78830647  5977
STARLINK-1325,45554,53.0375,0.0005808,16.00639109,268.784969938456,276.51052149908446,1 45554U 20025Z   26021.33334490  .00929900  43007-3  17171-2 0  9997,2 45554  53.0375 203.1891 0005808 210.5888  28.4277 16.00639109  5915
STARLINK-1327,45555,53.0535,0.0003604,15.44333786,430.88145883170546,435.7911687963024,1 45555U 20025AA  26021.36345672  .00037705  00000+0  81010-3 0  9994,2 45555  53.0535 293.4322 0003604 111.4629 248.6761 15.44333786318313
STARLINK-1356,45564,53.0531,7.14e-05,15.31585158,470.59332038077446,471.5713889046174,1 45564U 20025AK  26021.58335647  .00132424  00000+0  42187-2 0  9994,2 45564  53.0531 296.9127 0000714  96.9671 234.9389 15.31585158  5790
STARLINK-1357,45565,53.0579,0.0005692,15.4559628,425.7516056435734,433.50156370836885,1 45565U 20025AL  26021.40248065  .00035194  00000+0  72501-3 0  9993,2 45565  53.0579 265.0640 0005692 108.4931 251.6694 15.45596280318726
STARLINK-1361,45567,53.0573,0.0001352,15.25598614,488.0600634953207,489.916934230213,1 45567U 20025AN  26021.58335647  .01056613  00000+0  38085-1 0  9994,2 45567  53.0573 297.2394 0001352  98.6201 327.0653 15.25598614  5787
STARLINK-1363,45568,53.0487,0.0001018,15.63294038,377.4617524813966,378.8373324214399,1 45568U 20025AP  26021.58335647  .00148496  00000+0  15647-2 0  9995,2 45568  53.0487 270.7577 0001018  73.8900 183.7375 15.63294038  5863
STARLINK-1366,45569,53.0512,0.0001028,15.63157952,377.8470777723387,379.2362509057275,1 45569U 20025AQ  26021.58335647  .00141793  00000+0  15036-2 0  9991,2 45569  53.0512 271.3795 0001028  96.1689 149.7481 15.63157952  5969
STARLINK-1376,45570,53.1593,0.0001635,15.29357943,476.6095190428232,478.851387700076,1 45570U 20025AR  26021.47081178 -.00000006  00000+0  12125-4 0  9998,2 45570  53.1593 296.8481 0001635  82.6499 277.4687 15.29357943318270
STARLINK-1320,45572,53.0527,0.0007193,15.57447111,390.17654307617977,399.9204477298663,1 45572U 20025AT  26021.25137928  .00056987  00000+0  76295-3 0  9996,2 45572  53.0527 218.0315 0007193 168.2120 191.9061 15.57447111319384
STARLINK-1321,45573,53.0534,0.0003674,15.40812187,441.2046466304946,446.2173405361791,1 45573U 20025AU  26021.44945627  .00074244  00000+0  17765-2 0  9993,2 45573  53.0534 283.2160 0003674 105.6347 254.5063 15.40812187318165
STARLINK-1331,45578,53.0538,0.0001356,15.12944722,526.2889036054457,528.1616378532663,1 45578U 20025AZ  26021.45061117  .00139203  00000+0  76726-2 0  9991,2 45578  53.0538 288.3806 0001356 139.4174 220.6919 15.12944722318406
STARLINK-1333,45580,53.1551,0.0001846,15.29336485,476.5289776761947,479.0601876165083,1 45580U 20025BB  26021.46824981 -.00006811  00000+0 -22402-3 0  9994,2 45580  53.1551 297.1201 0001846  94.2443 265.8769 15.29336485318271
STARLINK-1335,45581,53.0528,0.0001738,15.06363205,546.1206864298829,548.5279767887505,1 45581U 20025BC  26020.96005880 -.00015490  00000+0 -10242-2 0  9999,2 45581  53.0528 290.8835 0001738  72.5774 287.5405 15.06363205318312
STARLINK-1337,45582,53.0525,0.0001269,15.19888469,505.3037590969607,507.0509980862471,1 45582U 20025BD  26021.58335647  .02076336  00000+0  85687-1 0  9996,2 45582  53.0525 287.4070 0001269  82.9091 291.7392 15.19888469  5659
STARLINK-1347,45586,53.0495,0.0005758,15.44366352,429.31856674437677,437.1625491401037,1 45586U 20025BH  26020.94181556  .00042588  00000+0  91197-3 0  9992,2 45586  53.0495 258.3272 0005758 114.1453 246.0155 15.44366352318766
STARLINK-1364,45589,53.0557,9.16e-05,15.25888726,487.489106940252,488.7470048664936,1 45589U 20025BL  26021.58335647  .01129011  00000+0  40129-1 0  9993,2 45589  53.0557 287.1763 0000916 105.1210   8.2599 15.25888726  5738
STARLINK-1365,45590,53.0592,0.0001208,15.31591866,470.23497273553494,471.8897392999479,1 45590U 20025BM  26021.58335647  .01086197  00000+0  32103-1 0  9995,2 45590  53.0592 316.9432 0001208  92.7483  53.0242 15.31591866  5793
STARLINK-1443,45660,53.0536,0.0001721,15.0638367,546.0697463881097,548.4534685888066,1 45660U 20035D   26020.98677990 -.00003430  00000+0 -21155-3 0  9994,2 45660  53.0536 280.7657 0001721  64.3415 295.7752 15.06383670311544
STARLINK-1446,45663,53.0233,0.000573,15.40537004,440.61396693078314,448.43273569338726,1 45663U 20035G   26020.84227695  .00041918  00000+0  10204-2 0  9998,2 45663  53.0233 226.2791 0005730 119.1721 240.9856 15.40537004312298
STARLINK-1448,45665,53.0569,0.0001332,15.25259908,489.0902543373495,490.91992739035686,1 45665U 20035J   26021.58335647  .01088895  00000+0  39555-1 0  9994,2 45665  53.0569 277.2644 0001332  96.9199 304.5926 15.25259908  5831
